    CK16M010  2018 08 10.3669  2.212538  0.999646  209.8949   92.2095   90.9916  20201113   5.0  4.0  C/2016 M1 (PANSTARRS)                                    MPEC 2020-UR0
    CK16N040  2017 09 16.5825  3.197946  0.998782   55.9397  353.9965   72.6129  20201113   8.5  4.0  C/2016 N4 (MASTER)                                       MPC115881
    CK16N060  2018 07 18.0396  2.666108  0.998249  162.7330  298.9891  105.8409  20201113   7.0  4.0  C/2016 N6 (PANSTARRS)                                    MPEC 2020-U96
    PK16P010  2021 06 10.1879  2.270289  0.289233  270.0745  319.5642   24.4560  20201113  15.0  4.0  P/2016 P1 (PANSTARRS)                                    MPC102099
    CK16P040  2016 10 18.3818  5.895781  0.985543  356.2091  320.7281   29.8805  20201113  10.5  4.0  C/2016 P4 (PANSTARRS)                                    MPC102099
    CK16Q020  2021 05 11.7088  7.082020  1.000060   84.5150  322.2976  109.3887  20201113   6.0  4.0  C/2016 Q2 (PANSTARRS)                                    MPEC 2020-UR0
    CK16Q040  2018 01 27.4362  7.085993  0.581263   99.4262  271.2885    7.2566  20201113   7.0  4.0  C/2016 Q4 (Kowalski)                                     MPC102955
    CK16R020  2018 05  9.1867  2.602557  0.995070   33.1667   80.5640   58.2312  20201113   7.0  4.0  C/2016 R2 (PANSTARRS)                                    MPC119995
    CK16R030  2016 10 10.2248  0.452903  0.997723  118.1862   78.7180   53.0369  20201113  18.0  4.0  C/2016 R3 (Borisov)                                      MPC102099
    PK16R040  2016 07 21.7680  2.792753  0.476186  174.0176  168.2742   10.8719  20201113  12.5  4.0  P/2016 R4 (Gibbs)                                        MPC109144
    PK16S010  2017 03 16.0842  2.400491  0.710037  273.2755  227.5398   94.6678  20201113  12.0  4.0  P/2016 S1 (PANSTARRS)                                    MPC105543
    CK16T010  2017 02  1.3326  2.304900  0.981495  137.4493   56.3118  129.8495  20201113  14.5  4.0  C/2016 T1 (Matheny)                                      MPC105238
    CK16T020  2016 12 29.2246  1.905058  0.980794   92.2227  339.1713   81.3879  20201113  14.5  4.0  C/2016 T2 (Matheny)                                      MPC107685
    CK16T030  2017 09  6.4639  2.648479  0.979919  194.6476  271.7334   22.6802  20201113  10.5  4.0  C/2016 T3 (PANSTARRS)                                    MPC110082
    CK16U010  2017 01 13.8992  0.322872  1.000405  162.8248   61.5222   46.3359  20201113  17.0  4.0  C/2016 U1 (NEOWISE)                                      MPC103847
    CK16V18Z  2017 03  5.6453  0.914480  0.994456   36.4136   98.9204   23.9785  20201113  19.5  4.0  C/2016 VZ18 (PANSTARRS)                                  MPC106345
    PK16W48M  2017 02 23.8831  1.764503  0.783924   36.0825   59.9028  117.4413  20201113  15.0  4.0  P/2016 WM48 (Lemmon)                                     MPC106345
    CK16X010  2019 04 28.7153  7.562887  0.994229  224.5058  256.4117   26.4533  20201113   6.0  4.0  C/2016 X1 (Lemmon)                                       MPC119995
    CK17A010  2017 05 16.2280  2.291040  0.970013    2.0267  121.0446   49.7921  20201113  13.0  4.0  C/2017 A1 (PANSTARRS)                                    MPC108594
    CK17A030  2017 01 30.8375  3.846977  0.911478  304.0117   97.9009   98.5319  20201113   9.5  4.0  C/2017 A3 (Elenin)                                       MPC108594
    CK17A05B  2018 02 15.6490  9.212994  0.996221   78.3370   42.6450   32.4393  20201113   5.5  4.0  C/2017 AB5 (PANSTARRS)                                   MPC114598
    CK17B030  2019 02  2.6052  3.922740  1.001717  284.7906    2.1796   54.1711  20201113   6.0  4.0  C/2017 B3 (LINEAR)                                       MPEC 2020-UR0
    PK17B040  2017 01  5.8178  2.800894  0.364952   11.0197  121.4578   20.0584            14.5  4.0  P/2017 B4 (PANSTARRS)                                    MPC103847
    CK17C010  2017 01 18.4488  1.499627  0.927170  110.0829  357.5340   65.7567  20201113  18.0  4.0  C/2017 C1 (NEOWISE)                                      MPC104793
    CK17C020  2017 01 21.5212  2.423136  0.974881  138.6048  249.7838  118.5864  20201113  14.0  4.0  C/2017 C2 (PANSTARRS)                                    MPC107685
    PK17D010  2016 06 24.3792  2.722483  0.436328    8.0616   82.1802   20.7564  20201113  14.0  4.0  P/2017 D1 (Fuls)                                         MPC104793
    CK17D020  2017 07 14.8874  2.489807  0.999413  334.5115  330.9602   31.2572  20201113  11.0  4.0  C/2017 D2 (Barros)                                       MPC112391
    CK17D030  2017 04 27.3642  4.973050  1.002177  340.8598  186.6722  125.5839  20201113   8.0  4.0  C/2017 D3 (ATLAS)                                        MPC114598
    PK17D040  2016 09  5.3703  2.810982  0.628381  212.2930  264.9382   10.5297  20201113  13.0  4.0  P/2017 D4 (PANSTARRS)                                    MPC110495
    CK17D050  2017 01  9.5329  2.160236  0.981146  287.7389   92.7216  131.0525  20201113  16.0  4.0  C/2017 D5 (PANSTARRS)                                    MPC104794
    CK17E010  2017 04 10.5800  0.901902  1.003084  152.6789  142.5783   14.5702  20201113  14.0  4.0  C/2017 E1 (Borisov)                                      MPC106346
    CK17E020  2016 05 11.5666  2.350396  0.890833   89.3657   11.6088   79.0721  20201113  11.5  4.0  C/2017 E2 (Tsuchinshan)                                  MPC109144
    CK17E030  2017 06  7.9996  5.938114  1.006693  334.5172  220.7438   70.6364  20201113   6.5  4.0  C/2017 E3 (PANSTARRS)                                    MPC115882
    CK17E040  2017 04 23.5997  0.491105  1.001500   87.0653  223.0241   88.0816  20201113  17.0  4.0  C/2017 E4 (Lovejoy)                                      MPC105239
    CK17E050  2016 06 10.7212  1.788215  0.995480  306.9282  206.3481  122.6673  20201113  13.0  4.0  C/2017 E5 (Lemmon)                                       MPC105239
    CK17F010  2017 11 30.2166  4.496418  1.003591   64.7607  158.7860  146.4640  20201113  10.5  4.0  C/2017 F1 (Lemmon)                                       MPC111769
    CK17F020  2017 11 27.4223  6.931863  1.003720  135.0360   38.6741   42.5209  20201113   7.5  4.0  C/2017 F2 (PANSTARRS)                                    MPC114598
    PK17G010  2016 04 27.5810  2.529208  0.652966  224.5437  249.6278    4.7741  20201113  13.5  4.0  P/2017 G1 (PANSTARRS)                                    MPC104794
    PK17G020  2017 06 11.5607  2.838356  0.648229  105.5613   79.7885   47.9466  20201113  13.0  4.0  P/2017 G2 (PANSTARRS)                                    MPC108595
    CK17G030  2017 04 15.7481  2.589532  0.991731   73.1331  279.4779  159.0555  20201113  14.0  4.0  C/2017 G3 (PANSTARRS)                                    MPC109144
    CK17K010  2018 03 17.4302  7.289520  1.002195    4.4004  225.6654  154.0138  20201113   7.0  4.0  C/2017 K1 (PANSTARRS)                                    MPC115882
    CK17K020  2022 12 19.8584  1.798449  1.000471  236.1760   88.2551   87.5471  20201113   1.5  4.0  C/2017 K2 (PANSTARRS)                                    MPEC 2020-UR0
    PK17K030  2017 05 31.4063  2.341170  0.580576  253.4751  354.2883    4.2737  20201113  14.5  4.0  P/2017 K3 (Gasparovic)                                   MPC106346
    CK17K040  2018 01  8.4566  2.651032  0.907016   15.2359  298.8692   16.6803  20201113  10.0  4.0  C/2017 K4 (ATLAS)                                        MPC114598
    CK17K050  2020 03 26.1092  7.679647  1.006646  171.9643  102.3736   82.2434  20201113   5.0  4.0  C/2017 K5 (PANSTARRS)                                    MPC119995
    CK17K060  2018 01  3.3580  1.998190  0.998131  303.7571   85.0358   57.2488  20201113  11.0  4.0  C/2017 K6 (Jacques)                                      MPC114599
    CK17M030  2017 04 28.1268  4.657333  0.972124  110.3415    7.0145   77.5526  20201113  10.5  4.0  C/2017 M3 (PANSTARRS)                                    MPC110083
    CK17M040  2019 01 17.9024  3.252573  1.001257  167.5849   65.8741  105.6471  20201113   6.0  4.0  C/2017 M4 (ATLAS)                                        MPEC 2020-UR0
    CK17M050  2018 06  4.1120  5.993558  1.005337   92.7531  216.2810   15.8783  20201113   6.5  4.0  C/2017 M5 (TOTAS)                                        MPC118841
    CK17O010  2017 10 14.8596  1.494816  0.995814   20.8456   25.7619   39.9011  20201113  11.0  4.0  C/2017 O1 (ASASSN)                                       MPC114599
    PK17P010  2018 06 18.9717  5.441571  0.310677  122.2794  221.3999    7.6969  20201113  10.0  4.0  P/2017 P1 (PANSTARRS)                                    MPC114599
    CK17P020  2017 12  6.6636  2.465335  0.998832  132.3587  165.4885   50.0547  20201113  10.0  4.0  C/2017 P2 (PANSTARRS)                                    MPC114599
    PK17R010  2017 04  9.9661  3.326109  0.195639  178.5763  143.6181    2.5739  20201113  13.5  4.0  P/2017 R1 (PANSTARRS)                                    MPC114599
    CK17S020  2017 08 29.7118  3.611429  0.824152  305.9584   62.4011   12.6777  20201113  13.0  4.0  C/2017 S2 (PANSTARRS)                                    MPC108595
    CK17S030  2018 08 16.0199  0.208108  1.000053  255.8396  171.1893   99.1380  20201113  11.0  4.0  C/2017 S3 (PANSTARRS)                                    MPC114599
    PK17S050  2023 03 19.5961  2.173189  0.314090   99.8542  252.3763   11.8509  20201113  14.0  4.0  P/2017 S5 (ATLAS)                                        MPC114599
    CK17S060  2018 02 26.4829  1.543552  1.000657  134.8111  131.0415  152.8674  20201113  12.5  4.0  C/2017 S6 (Catalina)                                     MPC109591
    CK17S070  2017 05 25.3276  7.607831  1.000513  187.5894  262.7822  124.2299  20201113   7.0  4.0  C/2017 S7 (Lemmon)                                       MPC114599
    PK17S080  2022 09 15.9053  1.689356  0.392177  254.7476  191.6546   29.8190  20201113  16.0  4.0  P/2017 S8 (PANSTARRS)                                    MPC114599
